*******************************************************************************
JPL/HORIZONS                386 Siegena (A894 EB)          2020-Jun-22 08:57:56
Rec #:     386 (+COV) Soln.date: 2020-May-20_01:04:35   # obs: 3272 (1894-2019)
 
IAU76/J2000 helio. ecliptic osc. elements (au, days, deg., period=Julian yrs):
 
  EPOCH=  2454454.5 ! 2007-Dec-20.00 (TDB)         Residual RMS= .28655
   EC= .173063382811769    QR= 2.392745664276258   TP= 2453671.2758163107
   OM= 166.93908719701     W=  220.0326415114788   IN= 20.25843119752404
   A= 2.893505517281515    MA= 156.8388648830406   ADIST= 3.394265370286771
   PER= 4.92203            N= .200247724           ANGMOM= .028819766
   DAN= 3.23559            DDN= 2.47842            L= 25.1808993
   B= -12.8688185          MOID= 1.42279994        TP= 2005-Oct-27.7758163107
 
Asteroid physical parameters (km, seconds, rotational period in hours):
   GM= n.a.                RAD= 82.505             ROTPER= 9.763
   H= 7.7                  G= .160                 B-V= .723
                           ALBEDO= .0692           STYP= C
 
ASTEROID comments: 
1: soln ref.= JPL#102, OCC=0
2: source=ORB
*******************************************************************************
 
 
*******************************************************************************
Ephemeris / WWW_USER Mon Jun 22 08:57:56 2020 Pasadena, USA      / Horizons
*******************************************************************************
Target body name: 386 Siegena (A894 EB)           {source: JPL#102}
Center body name: Solar System Barycenter (0)     {source: DE431}
Center-site name: BODY CENTER
*******************************************************************************
Start time      : A.D. 1969-Jun-28 00:00:00.0000 TDB
Stop  time      : A.D. 2071-May-04 00:00:00.0000 TDB
Step-size       : 7200 minutes
*******************************************************************************
Center geodetic : 0.00000000,0.00000000,0.0000000 {E-lon(deg),Lat(deg),Alt(km)}
Center cylindric: 0.00000000,0.00000000,0.0000000 {E-lon(deg),Dxy(km),Dz(km)}
Center radii    : (undefined)                                                  
Small perturbers: Yes                             {source: SB431-N16}
Output units    : AU-D
Output type     : GEOMETRIC cartesian states
Output format   : 2 (position and velocity)
Reference frame : Ecliptic of J2000.0
*******************************************************************************
Initial IAU76/J2000 heliocentric ecliptic osculating elements (au, days, deg.):
  EPOCH=  2454454.5 ! 2007-Dec-20.00 (TDB)         Residual RMS= .28655        
   EC= .173063382811769    QR= 2.392745664276258   TP= 2453671.2758163107      
   OM= 166.93908719701     W=  220.0326415114788   IN= 20.25843119752404       
  Equivalent ICRF heliocentric equatorial cartesian coordinates (au, au/d):
   X=-3.291815604740560E+00  Y=-6.617929443483263E-01  Z= 2.165262743082524E-01
  VX= 1.142183855494954E-03 VY=-8.480665923792405E-03 VZ=-6.328767712145919E-04
Asteroid physical parameters (km, seconds, rotational period in hours):        
   GM= n.a.                RAD= 82.505             ROTPER= 9.763               
   H= 7.7                  G= .160                 B-V= .723                   
                           ALBEDO= .0692           STYP= C                     
*******************************************************************************
            JDTDB,            Calendar Date (TDB),        delta-T,                      X,                      Y,                      Z,                     VX,                     VY,                     VZ,
******************************************************************************************************************************************************************************************************************
$$SOE
2441800.500000000, A.D. 1973-Apr-28 00:00:00.0000,      44.185524, -3.316664704400651E+00, -9.233587435100653E-02,  3.012260644602546E-01, -2.317327706783744E-04, -8.168895026030114E-03,  2.961165989917508E-03,
2441805.500000000, A.D. 1973-May-03 00:00:00.0000,      44.185462, -3.317491640447361E+00, -1.331694412313841E-01,  3.160012695649068E-01, -9.910771040723026E-05, -8.164262164682298E-03,  2.948824212305988E-03,
2441810.500000000, A.D. 1973-May-08 00:00:00.0000,      44.185388, -3.317656452405206E+00, -1.739758094822372E-01,  3.307133922926099E-01,  3.311481678025259E-05, -8.158017386983326E-03,  2.935933857166260E-03,
2441815.500000000, A.D. 1973-May-13 00:00:00.0000,      44.185304, -3.317161183483699E+00, -2.147469465384521E-01,  3.453597019487822E-01,  1.649226283003076E-04, -8.150171464642418E-03,  2.922499786284975E-03,
2441820.500000000, A.D. 1973-May-18 00:00:00.0000,      44.185209, -3.316007937289089E+00, -2.554748731696099E-01,  3.599374919171327E-01,  2.963037461290292E-04, -8.140734959906019E-03,  2.908526769375435E-03,
2441825.500000000, A.D. 1973-May-23 00:00:00.0000,      44.185105, -3.314198876829987E+00, -2.961516624339808E-01,  3.744440792020680E-01,  4.272463854830868E-04, -8.129718226112874E-03,  2.894019485190277E-03,
2441830.500000000, A.D. 1973-May-28 00:00:00.0000,      44.184995, -3.311736223578897E+00, -3.367694386358634E-01,  3.888768039767096E-01,  5.577389437607285E-04, -8.117131408492309E-03,  2.878982522654202E-03,
2441835.500000000, A.D. 1973-Jun-02 00:00:00.0000,      44.184879, -3.308622256588760E+00, -3.773203762875854E-01,  4.032330291366710E-01,  6.877699895477166E-04, -8.102984445218458E-03,  2.863420382041347E-03,
2441840.500000000, A.D. 1973-Jun-07 00:00:00.0000,      44.184757, -3.304859311664635E+00, -4.177966990771498E-01,  4.175101398599110E-01,  8.173282515780361E-04, -8.087287068580680E-03,  2.847337476232240E-03,
2441845.500000000, A.D. 1973-Jun-12 00:00:00.0000,      44.184628, -3.300449780590259E+00, -4.581906788416565E-01,  4.317055431730554E-01,  9.464026078663897E-04, -8.070048806113133E-03,  2.830738132036130E-03,
2441850.500000000, A.D. 1973-Jun-17 00:00:00.0000,      44.184493, -3.295396110407957E+00, -4.984946345463365E-01,  4.458166675243869E-01,  1.074982075255416E-03, -8.051278981734611E-03,  2.813626591528645E-03,
2441855.500000000, A.D. 1973-Jun-22 00:00:00.0000,      44.184355, -3.289700802749843E+00, -5.387009312696708E-01,  4.598409623635086E-01,  1.203055799323286E-03, -8.030986717064828E-03,  2.796007013385766E-03,
2441860.500000000, A.D. 1973-Jun-27 00:00:00.0000,      44.184216, -3.283366413218987E+00, -5.788019791956676E-01,  4.737758977277129E-01,  1.330613044463687E-03, -8.009180932969432E-03,  2.777883474235435E-03,
2441865.500000000, A.D. 1973-Jul-02 00:00:00.0000,      44.184077, -3.276395550820045E+00, -6.187902326142971E-01,  4.876189638352167E-01,  1.457643184004494E-03, -7.985870351256530E-03,  2.759259970057455E-03,
2441870.500000000, A.D. 1973-Jul-07 00:00:00.0000,      44.183937, -3.268790877439176E+00, -6.586581889305609E-01,  5.013676706855330E-01,  1.584135690385634E-03, -7.961063496421011E-03,  2.740140417636778E-03,
2441875.500000000, A.D. 1973-Jul-12 00:00:00.0000,      44.183796, -3.260555107372786E+00, -6.983983876822472E-01,  5.150195476672184E-01,  1.710080125471608E-03, -7.934768697365967E-03,  2.720528656056697E-03,
2441880.500000000, A.D. 1973-Jul-17 00:00:00.0000,      44.183655, -3.251691006904161E+00, -7.380034095661913E-01,  5.285721431731299E-01,  1.835466131095542E-03, -7.906994089085196E-03,  2.700428448204544E-03,
2441885.500000000, A.D. 1973-Jul-22 00:00:00.0000,      44.183517, -3.242201393926629E+00, -7.774658754729004E-01,  5.420230242231820E-01,  1.960283419906329E-03, -7.877747614333793E-03,  2.679843482261675E-03,
2441890.500000000, A.D. 1973-Jul-27 00:00:00.0000,      44.183384, -3.232089137611679E+00, -8.167784455296190E-01,  5.553697760944694E-01,  2.084521766550931E-03, -7.847037025345883E-03,  2.658777373157685E-03,
2441895.500000000, A.D. 1973-Aug-01 00:00:00.0000,      44.183257, -3.221357158120331E+00, -8.559338181522601E-01,  5.686100019585542E-01,  2.208170999177081E-03, -7.814869885676692E-03,  2.637233663982210E-03,
2441900.500000000, A.D. 1973-Aug-06 00:00:00.0000,      44.183134, -3.210008426356344E+00, -8.949247291070109E-01,  5.817413225257340E-01,  2.331220991180582E-03, -7.781253572236683E-03,  2.615215827369382E-03,
2441905.500000000, A.D. 1973-Aug-11 00:00:00.0000,      44.183015, -3.198045963760266E+00, -9.337439505826565E-01,  5.947613756962097E-01,  2.453661653110034E-03, -7.746195277549513E-03,  2.592727266877677E-03,
2441910.500000000, A.D. 1973-Aug-16 00:00:00.0000,      44.182903, -3.185472842143742E+00, -9.723842902747123E-01,  6.076678162182020E-01,  2.575482924645473E-03, -7.709702012208704E-03,  2.569771318392608E-03,
2441915.500000000, A.D. 1973-Aug-21 00:00:00.0000,      44.182799, -3.172292183563807E+00, -1.010838590482290E+00,  6.204583153531559E-01,  2.696674766623148E-03, -7.671780607512439E-03,  2.546351251560730E-03,
2441920.500000000, A.D. 1973-Aug-26 00:00:00.0000,      44.182705, -3.158507160237066E+00, -1.049099727218592E+00,  6.331305605482295E-01,  2.817227153034366E-03, -7.632437718287781E-03,  2.522470271274888E-03,
2441925.500000000, A.D. 1973-Aug-31 00:00:00.0000,      44.182621, -3.144120994494275E+00, -1.087160609336015E+00,  6.456822551164374E-01,  2.937130062843062E-03, -7.591679825891643E-03,  2.498131519259980E-03,
2441930.500000000, A.D. 1973-Sep-05 00:00:00.0000,      44.182546, -3.129136958776400E+00, -1.125014177666367E+00,  6.581111179250381E-01,  3.056373471596763E-03, -7.549513241225181E-03,  2.473338075781152E-03,
2441935.500000000, A.D. 1973-Sep-10 00:00:00.0000,      44.182480, -3.113558375672677E+00, -1.162653404175819E+00,  6.704148830926492E-01,  3.174947343063187E-03, -7.505944107594486E-03,  2.448092961411566E-03,
